[{"OBJECT_NAME":"STARLINK-33766","OBJECT_ID":"2025-070N","EPOCH":"2026-03-24T12:58:20.375040","MEAN_MOTION":15.27546483,"ECCENTRICITY":0.0001647,"INCLINATION":42.9989,"RA_OF_ASC_NODE":176.2767,"ARG_OF_PERICENTER":299.1742,"MEAN_ANOMALY":60.8945,"EPHEMERIS_TYPE":0,"CLASSIFICATION_TYPE":"U","NORAD_CAT_ID":63472,"ELEMENT_SET_NO":999,"REV_AT_EPOCH":5524,"BSTAR":0.00046816,"MEAN_MOTION_DOT":0.0001263,"MEAN_MOTION_DDOT":0},{"OBJECT_NAME":"STARLINK-33765","OBJECT_ID":"2025-070P","EPOCH":"2026-03-24T12:32:25.964736","MEAN_MOTION":15.27569817,"ECCENTRICITY":1.76e-5,"INCLINATION":43.0012,"RA_OF_ASC_NODE":176.1402,"ARG_OF_PERICENTER":321.91,"MEAN_ANOMALY":38.1739,"EPHEMERIS_TYPE":0,"CLASSIFICATION_TYPE":"U","NORAD_CAT_ID":63473,"ELEMENT_SET_NO":999,"REV_AT_EPOCH":5524,"BSTAR":0.00091866,"MEAN_MOTION_DOT":0.00025096,"MEAN_MOTION_DDOT":0},{"OBJECT_NAME":"STARLINK-33735","OBJECT_ID":"2025-070Q","EPOCH":"2026-03-23T14:08:19.669920","MEAN_MOTION":15.27615535,"ECCENTRICITY":0.00014508,"INCLINATION":43.0009,"RA_OF_ASC_NODE":181.1736,"ARG_OF_PERICENTER":262.8957,"MEAN_ANOMALY":97.173,"EPHEMERIS_TYPE":0,"CLASSIFICATION_TYPE":"U","NORAD_CAT_ID":63474,"ELEMENT_SET_NO":999,"REV_AT_EPOCH":5510,"BSTAR":0.0010664201,"MEAN_MOTION_DOT":0.00029232,"MEAN_MOTION_DDOT":0},{"OBJECT_NAME":"STARLINK-33731","OBJECT_ID":"2025-070R","EPOCH":"2026-03-24T13:03:53.654400","MEAN_MOTION":15.27561845,"ECCENTRICITY":0.0001659,"INCLINATION":42.9991,"RA_OF_ASC_NODE":176.3048,"ARG_OF_PERICENTER":294.6866,"MEAN_ANOMALY":65.3813,"EPHEMERIS_TYPE":0,"CLASSIFICATION_TYPE":"U","NORAD_CAT_ID":63475,"ELEMENT_SET_NO":999,"REV_AT_EPOCH":5524,"BSTAR":0.00060016,"MEAN_MOTION_DOT":0.0001628,"MEAN_MOTION_DDOT":0},{"OBJECT_NAME":"STARLINK-33718","OBJECT_ID":"2025-070S","EPOCH":"2026-03-24T13:22:10.535232","MEAN_MOTION":15.27567852,"ECCENTRICITY":0.0001469,"INCLINATION":43.0018,"RA_OF_ASC_NODE":175.5343,"ARG_OF_PERICENTER":240.6058,"MEAN_ANOMALY":119.4647,"EPHEMERIS_TYPE":0,"CLASSIFICATION_TYPE":"U","NORAD_CAT_ID":63476,"ELEMENT_SET_NO":999,"REV_AT_EPOCH":5525,"BSTAR":0.00082625,"MEAN_MOTION_DOT":0.00022536,"MEAN_MOTION_DDOT":0},{"OBJECT_NAME":"STARLINK-33630","OBJECT_ID":"2025-070T","EPOCH":"2026-03-23T23:35:48.802272","MEAN_MOTION":15.27565136,"ECCENTRICITY":0.00019069,"INCLINATION":43.0028,"RA_OF_ASC_NODE":175.4941,"ARG_OF_PERICENTER":53.5902,"MEAN_ANOMALY":306.5126,"EPHEMERIS_TYPE":0,"CLASSIFICATION_TYPE":"U","NORAD_CAT_ID":63477,"ELEMENT_SET_NO":999,"REV_AT_EPOCH":5520,"BSTAR":0.0011300394,"MEAN_MOTION_DOT":0.00030951,"MEAN_MOTION_DDOT":0},{"OBJECT_NAME":"STARLINK-33695","OBJECT_ID":"2025-070U","EPOCH":"2026-03-23T23:17:17.573856","MEAN_MOTION":15.27585846,"ECCENTRICITY":0.0001407,"INCLINATION":43.003,"RA_OF_ASC_NODE":175.3944,"ARG_OF_PERICENTER":321.8362,"MEAN_ANOMALY":38.239,"EPHEMERIS_TYPE":0,"CLASSIFICATION_TYPE":"U","NORAD_CAT_ID":63478,"ELEMENT_SET_NO":999,"REV_AT_EPOCH":5520,"BSTAR":0.00092890049,"MEAN_MOTION_DOT":0.00025392,"MEAN_MOTION_DDOT":0},{"OBJECT_NAME":"STARLINK-33713","OBJECT_ID":"2025-070V","EPOCH":"2026-03-23T23:22:52.636512","MEAN_MOTION":15.27537351,"ECCENTRICITY":7.669e-5,"INCLINATION":43.0038,"RA_OF_ASC_NODE":175.4206,"ARG_OF_PERICENTER":53.0465,"MEAN_ANOMALY":307.0457,"EPHEMERIS_TYPE":0,"CLASSIFICATION_TYPE":"U","NORAD_CAT_ID":63479,"ELEMENT_SET_NO":999,"REV_AT_EPOCH":5520,"BSTAR":-0.00071548588,"MEAN_MOTION_DOT":-0.00019872,"MEAN_MOTION_DDOT":0},{"OBJECT_NAME":"STARLINK-33721","OBJECT_ID":"2025-070W","EPOCH":"2026-03-23T23:26:33.729792","MEAN_MOTION":15.27564254,"ECCENTRICITY":0.00019936,"INCLINATION":43.0023,"RA_OF_ASC_NODE":175.4422,"ARG_OF_PERICENTER":267.0921,"MEAN_ANOMALY":92.9702,"EPHEMERIS_TYPE":0,"CLASSIFICATION_TYPE":"U","NORAD_CAT_ID":63480,"ELEMENT_SET_NO":999,"REV_AT_EPOCH":5520,"BSTAR":0.00087506819,"MEAN_MOTION_DOT":0.00023885,"MEAN_MOTION_DDOT":0},{"OBJECT_NAME":"STARLINK-33639","OBJECT_ID":"2025-070X","EPOCH":"2026-03-24T12:27:34.199712","MEAN_MOTION":15.27588678,"ECCENTRICITY":0.0001843,"INCLINATION":42.9997,"RA_OF_ASC_NODE":172.6266,"ARG_OF_PERICENTER":248.9913,"MEAN_ANOMALY":111.0742,"EPHEMERIS_TYPE":0,"CLASSIFICATION_TYPE":"U","NORAD_CAT_ID":63481,"ELEMENT_SET_NO":999,"REV_AT_EPOCH":5528,"BSTAR":0.00092197,"MEAN_MOTION_DOT":0.00025202,"MEAN_MOTION_DDOT":0},{"OBJECT_NAME":"STARLINK-33688","OBJECT_ID":"2025-070Z","EPOCH":"2026-03-24T12:37:58.933056","MEAN_MOTION":15.27575926,"ECCENTRICITY":9.7e-6,"INCLINATION":43.0001,"RA_OF_ASC_NODE":176.15,"ARG_OF_PERICENTER":26.4689,"MEAN_ANOMALY":333.6168,"EPHEMERIS_TYPE":0,"CLASSIFICATION_TYPE":"U","NORAD_CAT_ID":63483,"ELEMENT_SET_NO":999,"REV_AT_EPOCH":5524,"BSTAR":0.00085502,"MEAN_MOTION_DOT":0.00023338,"MEAN_MOTION_DDOT":0},{"OBJECT_NAME":"STARLINK-33700","OBJECT_ID":"2025-070AA","EPOCH":"2026-03-23T23:36:58.959936","MEAN_MOTION":15.27567409,"ECCENTRICITY":0.00013649,"INCLINATION":43.0046,"RA_OF_ASC_NODE":178.9604,"ARG_OF_PERICENTER":277.1799,"MEAN_ANOMALY":82.8898,"EPHEMERIS_TYPE":0,"CLASSIFICATION_TYPE":"U","NORAD_CAT_ID":63484,"ELEMENT_SET_NO":999,"REV_AT_EPOCH":5516,"BSTAR":0.00067009277,"MEAN_MOTION_DOT":0.00018216,"MEAN_MOTION_DDOT":0},{"OBJECT_NAME":"STARLINK-33687","OBJECT_ID":"2025-070AB","EPOCH":"2026-03-24T13:27:42.948000","MEAN_MOTION":15.2756959,"ECCENTRICITY":0.0001239,"INCLINATION":43.0017,"RA_OF_ASC_NODE":175.5087,"ARG_OF_PERICENTER":240.5243,"MEAN_ANOMALY":119.5485,"EPHEMERIS_TYPE":0,"CLASSIFICATION_TYPE":"U","NORAD_CAT_ID":63485,"ELEMENT_SET_NO":999,"REV_AT_EPOCH":5525,"BSTAR":0.00085714,"MEAN_MOTION_DOT":0.00023392,"MEAN_MOTION_DDOT":0},{"OBJECT_NAME":"STARLINK-33716","OBJECT_ID":"2025-070AC","EPOCH":"2026-03-23T23:27:42.684768","MEAN_MOTION":15.27587857,"ECCENTRICITY":0.0002481,"INCLINATION":43.0055,"RA_OF_ASC_NODE":178.9242,"ARG_OF_PERICENTER":48.9112,"MEAN_ANOMALY":311.1954,"EPHEMERIS_TYPE":0,"CLASSIFICATION_TYPE":"U","NORAD_CAT_ID":63486,"ELEMENT_SET_NO":999,"REV_AT_EPOCH":5516,"BSTAR":0.0006623583,"MEAN_MOTION_DOT":0.00018014,"MEAN_MOTION_DDOT":0},{"OBJECT_NAME":"STARLINK-33754","OBJECT_ID":"2025-070AD","EPOCH":"2026-03-24T12:30:34.920000","MEAN_MOTION":15.27582813,"ECCENTRICITY":8.91e-5,"INCLINATION":43.0023,"RA_OF_ASC_NODE":176.1118,"ARG_OF_PERICENTER":259.9282,"MEAN_ANOMALY":100.1469,"EPHEMERIS_TYPE":0,"CLASSIFICATION_TYPE":"U","NORAD_CAT_ID":63487,"ELEMENT_SET_NO":999,"REV_AT_EPOCH":5524,"BSTAR":0.0012349,"MEAN_MOTION_DOT":0.00033878,"MEAN_MOTION_DDOT":0},{"OBJECT_NAME":"STARLINK-33828","OBJECT_ID":"2025-071A","EPOCH":"2026-03-24T05:11:09.824352","MEAN_MOTION":15.30209598,"ECCENTRICITY":0.0001378,"INCLINATION":53.1606,"RA_OF_ASC_NODE":74.6105,"ARG_OF_PERICENTER":87.621,"MEAN_ANOMALY":272.4949,"EPHEMERIS_TYPE":0,"CLASSIFICATION_TYPE":"U","NORAD_CAT_ID":63493,"ELEMENT_SET_NO":999,"REV_AT_EPOCH":5494,"BSTAR":0.00040686,"MEAN_MOTION_DOT":0.00011713,"MEAN_MOTION_DDOT":0}]
