STARLINK-33766          
1 63472U 25070N   26083.54051360  .00012630  00000+0  46816-3 0  9998
2 63472  42.9989 176.2767 0001647 299.1742  60.8945 15.27546483 55246
STARLINK-33765          
1 63473U 25070P   26083.52252274  .00025096  00000+0  91866-3 0  9999
2 63473  43.0012 176.1402 0000176 321.9100  38.1739 15.27569817 55244
STARLINK-33735          
1 63474U 25070Q   26082.58911655  .00029232  00000+0  10664-2 0  9992
2 63474  43.0009 181.1736 0001450 262.8957  97.1730 15.27615535 55106
STARLINK-33731          
1 63475U 25070R   26083.54437100  .00016280  00000+0  60016-3 0  9994
2 63475  42.9991 176.3048 0001659 294.6866  65.3813 15.27561845 55248
STARLINK-33718          
1 63476U 25070S   26083.55706638  .00022536  00000+0  82625-3 0  9992
2 63476  43.0018 175.5343 0001469 240.6058 119.4647 15.27567852 55254
STARLINK-33630          
1 63477U 25070T   26082.98320373  .00030951  00000+0  11300-2 0  9998
2 63477  43.0028 175.4941 0001906  53.5902 306.5126 15.27565136 55203
STARLINK-33695          
1 63478U 25070U   26082.97034229  .00025392  00000+0  92890-3 0  9997
2 63478  43.0030 175.3944 0001407 321.8362  38.2390 15.27585846 55208
STARLINK-33713          
1 63479U 25070V   26082.97422033 -.00019872  00000+0 -71549-3 0  9998
2 63479  43.0038 175.4206 0000766  53.0465 307.0457 15.27537351 55203
STARLINK-33721          
1 63480U 25070W   26082.97677928  .00023885  00000+0  87507-3 0  9993
2 63480  43.0023 175.4422 0001993 267.0921  92.9702 15.27564254 55201
STARLINK-33639          
1 63481U 25070X   26083.51914583  .00025202  00000+0  92197-3 0  9992
2 63481  42.9997 172.6266 0001843 248.9913 111.0742 15.27588678 55289
STARLINK-33688          
1 63483U 25070Z   26083.52637654  .00023338  00000+0  85502-3 0  9996
2 63483  43.0001 176.1500 0000097  26.4689 333.6168 15.27575926 55240
STARLINK-33700          
1 63484U 25070AA  26082.98401574  .00018216  00000+0  67009-3 0  9997
2 63484  43.0046 178.9604 0001364 277.1799  82.8898 15.27567409 55161
STARLINK-33687          
1 63485U 25070AB  26083.56091375  .00023392  00000+0  85714-3 0  9991
2 63485  43.0017 175.5087 0001239 240.5243 119.5485 15.27569590 55250
STARLINK-33716          
1 63486U 25070AC  26082.97757737  .00018014  00000+0  66236-3 0  9990
2 63486  43.0055 178.9242 0002481  48.9112 311.1954 15.27587857 55165
STARLINK-33754          
1 63487U 25070AD  26083.52123750  .00033878  00000+0  12349-2 0  9995
2 63487  43.0023 176.1118 0000891 259.9282 100.1469 15.27582813 55241
STARLINK-33828          
1 63493U 25071A   26083.21608593  .00011713  00000+0  40686-3 0  9992
2 63493  53.1606  74.6105 0001378  87.6210 272.4949 15.30209598 54945
